SENTINEL-6              
1 46984U 20086A   24067.10830562 -.00000040  00000+0  89859-4 0  9998
2 46984  66.0404  63.2864 0007889 270.9977  89.0134 12.80929012153878
